$$SOE
2461295.500000000, A.D. 2026-Sep-12 00:00:00.0000, 2.082032396714593E+07, 4.264422866621308E+08, 1.065157700972575E+07,
2461302.500000000, A.D. 2026-Sep-19 00:00:00.0000, 1.070581651384182E+07, 4.260247078780630E+08, 1.144927034341362E+07,
2461309.500000000, A.D. 2026-Sep-26 00:00:00.0000, 5.844976618216180E+05, 4.253402117797087E+08, 1.223978896508184E+07,
2461316.500000000, A.D. 2026-Oct-03 00:00:00.0000, -9.537296861018533E+06, 4.243877268981500E+08, 1.302259431643033E+07,
2461323.500000000, A.D. 2026-Oct-10 00:00:00.0000, -1.965315795442902E+07, 4.231662959540164E+08, 1.379714526711550E+07,
2461330.500000000, A.D. 2026-Oct-17 00:00:00.0000, -2.975660294051242E+07, 4.216750793659027E+08, 1.456289819914037E+07,
2461337.500000000, A.D. 2026-Oct-24 00:00:00.0000, -3.984107546661851E+07, 4.199133588344153E+08, 1.531930709642127E+07,
2461344.500000000, A.D. 2026-Oct-31 00:00:00.0000, -4.989994542870413E+07, 4.178805409374573E+08, 1.606582362610474E+07,
2461351.500000000, A.D. 2026-Nov-07 00:00:00.0000, -5.992650858807346E+07, 4.155761608130599E+08, 1.680189718779117E+07,
2461358.500000000, A.D. 2026-Nov-14 00:00:00.0000, -6.991398569356589E+07, 4.129998868202752E+08, 1.752697498608002E+07,
2461365.500000000, A.D. 2026-Nov-21 00:00:00.0000, -7.985552293313755E+07, 4.101515268642989E+08, 1.824050234961963E+07,
2461372.500000000, A.D. 2026-Nov-28 00:00:00.0000, -8.974419472312349E+07, 4.070310333778197E+08, 1.894192314359617E+07,
2461379.500000000, A.D. 2026-Dec-05 00:00:00.0000, -9.957300522953570E+07, 4.036385062987792E+08, 1.963067989159760E+07,
2461386.500000000, A.D. 2026-Dec-12 00:00:00.0000, -1.093348884717938E+08, 3.999741971568449E+08, 2.030621384745803E+07,
2461393.500000000, A.D. 2026-Dec-19 00:00:00.0000, -1.190227089087652E+08, 3.960385142736130E+08, 2.096796519185650E+07,
2461400.500000000, A.D. 2026-Dec-26 00:00:00.0000, -1.286292626647345E+08, 3.918320282025452E+08, 2.161537329708582E+07,
2461407.500000000, A.D. 2027-Jan-02 00:00:00.0000, -1.381472791383083E+08, 3.873554772126560E+08, 2.224787702063051E+07,
2461414.500000000, A.D. 2027-Jan-09 00:00:00.0000, -1.475694228973892E+08, 3.826097728331990E+08, 2.286491502011019E+07,
2461421.500000000, A.D. 2027-Jan-16 00:00:00.0000, -1.568882958445776E+08, 3.775960054655464E+08, 2.346592608857825E+07,
2461428.500000000, A.D. 2027-Jan-23 00:00:00.0000, -1.660964396263624E+08, 3.723154500180331E+08, 2.405034950398043E+07,
2461435.500000000, A.D. 2027-Jan-30 00:00:00.0000, -1.751863381184813E+08, 3.667695715085472E+08, 2.461762537273273E+07,
2461442.500000000, A.D. 2027-Feb-06 00:00:00.0000, -1.841504195846008E+08, 3.609600309653020E+08, 2.516719495734221E+07,
2461449.500000000, A.D. 2027-Feb-13 00:00:00.0000, -1.929810589927440E+08, 3.548886928357756E+08, 2.569850113122445E+07,
2461456.500000000, A.D. 2027-Feb-20 00:00:00.0000, -2.016705828772058E+08, 3.485576331045356E+08, 2.621098911422111E+07,
2461463.500000000, A.D. 2027-Feb-27 00:00:00.0000, -2.102112753697422E+08, 3.419691448934038E+08, 2.670410709934932E+07,
2461470.500000000, A.D. 2027-Mar-06 00:00:00.0000, -2.185953824042946E+08, 3.351257434477626E+08, 2.717730665239838E+07,
2461477.500000000, A.D. 2027-Mar-13 00:00:00.0000, -2.268151157214750E+08, 3.280301725438158E+08, 2.763004320001958E+07,
2461484.500000000, A.D. 2027-Mar-20 00:00:00.0000, -2.348626578244505E+08, 3.206854114665101E+08, 2.806177664279434E+07,
2461491.500000000, A.D. 2027-Mar-27 00:00:00.0000, -2.427301677052312E+08, 3.130946819878998E+08, 2.847197203086188E+07,
2461498.500000000, A.D. 2027-Apr-03 00:00:00.0000, -2.504097871604359E+08, 3.052614552739258E+08, 2.886010028052819E+07,
2461505.500000000, A.D. 2027-Apr-10 00:00:00.0000, -2.578936476575578E+08, 2.971894587163547E+08, 2.922563892900395E+07,
2461512.500000000, A.D. 2027-Apr-17 00:00:00.0000, -2.651738777515928E+08, 2.888826826469675E+08, 2.956807292487477E+07,
2461519.500000000, A.D. 2027-Apr-24 00:00:00.0000, -2.722426109940597E+08, 2.803453868406496E+08, 2.988689544264352E+07,
2461526.500000000, A.D. 2027-May-01 00:00:00.0000, -2.790919940550309E+08, 2.715821068011020E+08, 3.018160869668189E+07,
2461533.500000000, A.D. 2027-May-08 00:00:00.0000, -2.857141947701189E+08, 2.625976605402961E+08, 3.045172478794357E+07,
2461540.500000000, A.D. 2027-May-15 00:00:00.0000, -2.921014116288767E+08, 2.533971567655899E+08, 3.069676679891716E+07,
2461547.500000000, A.D. 2027-May-22 00:00:00.0000, -2.982458862866780E+08, 2.439860018433392E+08, 3.091627006861190E+07,
2461554.500000000, A.D. 2027-May-29 00:00:00.0000, -3.041399157546372E+08, 2.343699040262643E+08, 3.110978321949616E+07,
2461561.500000000, A.D. 2027-Jun-05 00:00:00.0000, -3.097758633916307E+08, 2.245548780230263E+08, 3.127686911047846E+07,
2461568.500000000, A.D. 2027-Jun-12 00:00:00.0000, -3.151461707187182E+08, 2.145472502894790E+08, 3.141710593468383E+07,
2461575.500000000, A.D. 2027-Jun-19 00:00:00.0000, -3.202433703946068E+08, 2.043536640548633E+08, 3.153008841507635E+07,
2461582.500000000, A.D. 2027-Jun-26 00:00:00.0000, -3.250601000739987E+08, 1.939810837650039E+08, 3.161542904958674E+07,
2461589.500000000, A.D. 2027-Jul-03 00:00:00.0000, -3.295891170141937E+08, 1.834367988901267E+08, 3.167275939255506E+07,
2461596.500000000, A.D. 2027-Jul-10 00:00:00.0000, -3.338233133867744E+08, 1.727284270427638E+08, 3.170173136770351E+07,
2461603.500000000, A.D. 2027-Jul-17 00:00:00.0000, -3.377557322470844E+08, 1.618639163014262E+08, 3.170201860361152E+07,
2461610.500000000, A.D. 2027-Jul-24 00:00:00.0000, -3.413795839888960E+08, 1.508515466097736E+08, 3.167331776924359E+07,
2461617.500000000, A.D. 2027-Jul-31 00:00:00.0000, -3.446882628508569E+08, 1.396999304175361E+08, 3.161534988758039E+07,
2461624.500000000, A.D. 2027-Aug-07 00:00:00.0000, -3.476753636474709E+08, 1.284180136440817E+08, 3.152786173586030E+07,
2461631.500000000, A.D. 2027-Aug-14 00:00:00.0000, -3.503347009932691E+08, 1.170150766402339E+08, 3.141062751824427E+07,
2461638.500000000, A.D. 2027-Aug-21 00:00:00.0000, -3.526603303633897E+08, 1.055007317165798E+08, 3.126345047427907E+07,
2461645.500000000, A.D. 2027-Aug-28 00:00:00.0000, -3.546465675047986E+08, 9.388491837550220E+07, 3.108616420071118E+07,
2461652.500000000, A.D. 2027-Sep-04 00:00:00.0000, -3.562880073106183E+08, 8.217789867712086E+07, 3.087863399177872E+07,
2461659.500000000, A.D. 2027-Sep-11 00:00:00.0000, -3.575795434824072E+08, 7.039025200340027E+07, 3.064075826358113E+07,
2461666.500000000, A.D. 2027-Sep-18 00:00:00.0000, -3.585163887738214E+08, 5.853286849980880E+07, 3.037246998893721E+07,
2461673.500000000, A.D. 2027-Sep-25 00:00:00.0000, -3.590940955077752E+08, 4.661694105135275E+07, 3.007373810720595E+07,
2461680.500000000, A.D. 2027-Oct-02 00:00:00.0000, -3.593085762068983E+08, 3.465395576220003E+07, 2.974456889606141E+07,
2461687.500000000, A.D. 2027-Oct-09 00:00:00.0000, -3.591561242205871E+08, 2.265568088462994E+07, 2.938500729383641E+07,
2461694.500000000, A.D. 2027-Oct-16 00:00:00.0000, -3.586334341800461E+08, 1.063415410017266E+07, 2.899513815238885E+07,
2461701.500000000, A.D. 2027-Oct-23 00:00:00.0000, -3.577376219054547E+08, -1.398331888337687E+06, 2.857508738570828E+07,
2461708.500000000, A.D. 2027-Oct-30 00:00:00.0000, -3.564662432656088E+08, -1.342924487173594E+07, 2.812502301880485E+07,
2461715.500000000, A.D. 2027-Nov-06 00:00:00.0000, -3.548173130213372E+08, -2.544582864838973E+07, 2.764515632447825E+07,
2461722.500000000, A.D. 2027-Nov-13 00:00:00.0000, -3.527893255027623E+08, -3.743512062384655E+07, 2.713574304904914E+07,
2461729.500000000, A.D. 2027-Nov-20 00:00:00.0000, -3.503812740821455E+08, -4.938397367930625E+07, 2.659708427139712E+07,
2461736.500000000, A.D. 2027-Nov-27 00:00:00.0000, -3.475926676806141E+08, -6.127907932498647E+07, 2.602952697850476E+07,
2461743.500000000, A.D. 2027-Dec-04 00:00:00.0000, -3.444235461796938E+08, -7.310699119284900E+07, 2.543346460663444E+07,
2461750.500000000, A.D. 2027-Dec-11 00:00:00.0000, -3.408744951372949E+08, -8.485414979049949E+07, 2.480933750885691E+07,
2461757.500000000, A.D. 2027-Dec-18 00:00:00.0000, -3.369466593874321E+08, -9.650690879718687E+07, 2.415763328595331E+07,
2461764.500000000, A.D. 2027-Dec-25 00:00:00.0000, -3.326417552274920E+08, -1.080515628276146E+08, 2.347888695737087E+07,
2461771.500000000, A.D. 2028-Jan-01 00:00:00.0000, -3.279620810089072E+08, -1.194743765561273E+08, 2.277368096105959E+07,
$$EOE